ALOS (DAICHI)           
1 28931U 06002A   26039.43310651  .00001816  00000+0  31315-3 0  9995
2 28931  98.1170 355.5475 0002002  66.8950 293.2466 14.69712379 69188
H-2A R/B                
1 28932U 06002B   26039.37123247  .00008512  00000+0  43384-3 0  9991
2 28932  98.2359 183.8993 0052819 342.2233  17.7148 15.15829451 89991
RESURS-DK 1             
1 29228U 06021A   26039.17461401  .00003415  00000+0  20135-3 0  9992
2 29228  69.9348 313.3608 0004667 205.9509 154.1424 15.12571404 83069
CZ-4B R/B               
1 29507U 06046C   26039.58127661  .00005138  00000+0  26289-3 0  9991
2 29507  97.5654  84.5659 0033686  11.3185 348.8797 15.16588054 55631
CZ-2C R/B               
1 31114U 07010B   26039.34812980  .00000146  00000+0  86122-4 0  9996
2 31114  98.3969 154.1005 0059323  20.6098 339.7454 14.20235896975555
COSMO-SKYMED 1          
1 31598U 07023A   26039.57699692  .00003605  00000+0  32422-3 0  9990
2 31598  97.8857 230.3815 0000874  77.5427 282.5892 14.96301078 10551
COSMOS 2428             
1 31792U 07029A   26039.08387586  .00000326  00000+0  20058-3 0  9993
2 31792  70.9396 265.4907 0007274 309.6878  50.3601 14.12932366959917
SL-16 R/B               
1 31793U 07029B   26039.57638322  .00000410  00000+0  23728-3 0  9996
2 31793  70.9733 233.5813 0001939 277.5177 143.4439 14.14831773961257
KORONAS-FOTON           
1 33504U 09003A   26039.19082706  .00011406  00000+0  26163-3 0  9992
2 33504  82.4324 306.5251 0008898 264.1288  95.8944 15.42543076941196
CZ-2C R/B               
1 37731U 11030B   26039.43783868  .00001885  00000+0  24346-3 0  9996
2 37731  97.8495 357.3006 0054249  85.6420  29.0351 14.81108841785767
H-2A R/B                
1 38341U 12025E   26039.48079254  .00004104  00000+0  37465-3 0  9994
2 38341  98.4680   4.2080 0045831  49.2904 311.2281 14.94908411743855
SHIJIAN-16 (SJ-16)      
1 39358U 13057A   26039.59991031  .00001360  00000+0  13589-3 0  9999
2 39358  74.9705 240.1542 0016795 185.1690 174.9328 14.92240218667161
